ONEWEB-0545             
1 54647U 22166F   25062.81283593 -.00000014  00000+0 -64953-4 0  9994
2 54647  87.9344 337.7574 0001748  99.3804 260.7527 13.21824635109365
ONEWEB-0580             
1 54648U 22166G   25063.31590666  .00000104  00000+0  22031-3 0  9991
2 54648  87.9350 337.6455 0001505  91.3444 268.7863 13.21826045109934
ONEWEB-0582             
1 54649U 22166H   25062.82860837 -.00000013  00000+0 -62128-4 0  9990
2 54649  87.9331 337.7674 0001362  95.6617 264.4672 13.21824999109384
ONEWEB-0583             
1 54650U 22166J   25062.83965043 -.00000002  00000+0 -36039-4 0  9998
2 54650  87.9347 337.7655 0001784  83.5554 276.5783 13.21825555109393
ONEWEB-0584             
1 54651U 22166K   25062.78445223  .00000048  00000+0  84200-4 0  9997
2 54651  87.9351 337.7552 0001373  86.0827 274.0464 13.21824495109379
ONEWEB-0585             
1 54652U 22166L   25063.18816200  .00000105  00000+0  22381-3 0  9995
2 54652  87.9340 337.6737 0001837  75.6989 284.4349 13.21824428109902
ONEWEB-0586             
1 54653U 22166M   25063.12509282 -.00000046  00000+0 -14372-3 0  9996
2 54653  87.9348 337.7006 0001674  85.9583 274.1743 13.21825826109899
ONEWEB-0587             
1 54654U 22166N   25063.28594436  .00000020  00000+0  16085-4 0  9993
2 54654  87.9345 337.6200 0001919  73.6134 286.5210 13.21826193110065
